CCSDS_OMM_VERS = 2.0
CREATION_DATE  = 
ORIGINATOR     = 

OBJECT_NAME    = KSLV-II R/B
OBJECT_ID      = 2025-274P
CENTER_NAME    = EARTH
REF_FRAME      = TEME
TIME_SYSTEM    = UTC
MEAN_ELEMENT_THEORY = SGP/SGP4

EPOCH          = 2025-12-23T05:59:25.426176
MEAN_MOTION    = 14.97536982
ECCENTRICITY   = .00600006
INCLINATION    = 97.7435
RA_OF_ASC_NODE = 284.4956
ARG_OF_PERICENTER = 282.7951
MEAN_ANOMALY   = 76.6570

EPHEMERIS_TYPE = 0
CLASSIFICATION_TYPE = U
NORAD_CAT_ID   = 66663
ELEMENT_SET_NO = 999
REV_AT_EPOCH   = 398
BSTAR          = .11394408E-2
MEAN_MOTION_DOT = .13749E-3
MEAN_MOTION_DDOT = 0

CCSDS_OMM_VERS = 2.0
CREATION_DATE  = 
ORIGINATOR     = 

OBJECT_NAME    = SOYUZ-MS 28
OBJECT_ID      = 2025-275A
CENTER_NAME    = EARTH
REF_FRAME      = TEME
TIME_SYSTEM    = UTC
MEAN_ELEMENT_THEORY = SGP/SGP4

EPOCH          = 2025-12-24T05:07:18.077088
MEAN_MOTION    = 15.49773492
ECCENTRICITY   = .00031703
INCLINATION    = 51.6319
RA_OF_ASC_NODE = 85.6574
ARG_OF_PERICENTER = 294.2840
MEAN_ANOMALY   = 65.7818

EPHEMERIS_TYPE = 0
CLASSIFICATION_TYPE = U
NORAD_CAT_ID   = 66664
ELEMENT_SET_NO = 999
REV_AT_EPOCH   = 128
BSTAR          = .22737508E-3
MEAN_MOTION_DOT = .1244E-3
MEAN_MOTION_DDOT = 0

CCSDS_OMM_VERS = 2.0
CREATION_DATE  = 
ORIGINATOR     = 

OBJECT_NAME    = FORMOSAT-8A
OBJECT_ID      = 2025-276A
CENTER_NAME    = EARTH
REF_FRAME      = TEME
TIME_SYSTEM    = UTC
MEAN_ELEMENT_THEORY = SGP/SGP4

EPOCH          = 2025-12-24T05:35:38.268384
MEAN_MOTION    = 15.00353618
ECCENTRICITY   = .00039681
INCLINATION    = 97.6576
RA_OF_ASC_NODE = 70.0060
ARG_OF_PERICENTER = 188.8830
MEAN_ANOMALY   = 171.2324

EPHEMERIS_TYPE = 0
CLASSIFICATION_TYPE = U
NORAD_CAT_ID   = 66666
ELEMENT_SET_NO = 999
REV_AT_EPOCH   = 381
BSTAR          = .41470796E-3
MEAN_MOTION_DOT = .5148E-4
MEAN_MOTION_DDOT = 0

CCSDS_OMM_VERS = 2.0
CREATION_DATE  = 
ORIGINATOR     = 

OBJECT_NAME    = PELICAN-5
OBJECT_ID      = 2025-276B
CENTER_NAME    = EARTH
REF_FRAME      = TEME
TIME_SYSTEM    = UTC
MEAN_ELEMENT_THEORY = SGP/SGP4

EPOCH          = 2025-12-24T05:00:53.295552
MEAN_MOTION    = 15.17615125
ECCENTRICITY   = .00022153
INCLINATION    = 97.4411
RA_OF_ASC_NODE = 69.7851
ARG_OF_PERICENTER = 208.2187
MEAN_ANOMALY   = 151.8927

EPHEMERIS_TYPE = 0
CLASSIFICATION_TYPE = U
NORAD_CAT_ID   = 66667
ELEMENT_SET_NO = 999
REV_AT_EPOCH   = 386
BSTAR          = .47985567E-3
MEAN_MOTION_DOT = .9589E-4
MEAN_MOTION_DDOT = 0

CCSDS_OMM_VERS = 2.0
CREATION_DATE  = 
ORIGINATOR     = 

OBJECT_NAME    = TRANSPORTER-15C
OBJECT_ID      = 2025-276C
CENTER_NAME    = EARTH
REF_FRAME      = TEME
TIME_SYSTEM    = UTC
MEAN_ELEMENT_THEORY = SGP/SGP4

EPOCH          = 2025-12-22T16:55:56.699040
MEAN_MOTION    = 15.21727190
ECCENTRICITY   = .00267972
INCLINATION    = 97.4316
RA_OF_ASC_NODE = 68.2383
ARG_OF_PERICENTER = 290.2810
MEAN_ANOMALY   = 69.5546

EPHEMERIS_TYPE = 0
CLASSIFICATION_TYPE = U
NORAD_CAT_ID   = 66668
ELEMENT_SET_NO = 999
REV_AT_EPOCH   = 363
BSTAR          = .88401316E-1
MEAN_MOTION_DOT = .2259996E-1
MEAN_MOTION_DDOT = 0

CCSDS_OMM_VERS = 2.0
CREATION_DATE  = 
ORIGINATOR     = 

OBJECT_NAME    = TRANSPORTER-15D
OBJECT_ID      = 2025-276D
CENTER_NAME    = EARTH
REF_FRAME      = TEME
TIME_SYSTEM    = UTC
MEAN_ELEMENT_THEORY = SGP/SGP4

EPOCH          = 2025-12-21T02:39:18.210816
MEAN_MOTION    = 15.34134881
ECCENTRICITY   = .00748198
INCLINATION    = 97.4314
RA_OF_ASC_NODE = 66.7079
ARG_OF_PERICENTER = 232.3102
MEAN_ANOMALY   = 127.1341

EPHEMERIS_TYPE = 0
CLASSIFICATION_TYPE = U
NORAD_CAT_ID   = 66669
ELEMENT_SET_NO = 999
REV_AT_EPOCH   = 339
BSTAR          = .27830351E-2
MEAN_MOTION_DOT = .101698E-2
MEAN_MOTION_DDOT = 0

CCSDS_OMM_VERS = 2.0
CREATION_DATE  = 
ORIGINATOR     = 

OBJECT_NAME    = HUNITY
OBJECT_ID      = 2025-276E
CENTER_NAME    = EARTH
REF_FRAME      = TEME
TIME_SYSTEM    = UTC
MEAN_ELEMENT_THEORY = SGP/SGP4

EPOCH          = 2025-12-23T13:32:41.599104
MEAN_MOTION    = 15.14778724
ECCENTRICITY   = .00045159
INCLINATION    = 97.4308
RA_OF_ASC_NODE = 69.0882
ARG_OF_PERICENTER = 49.7951
MEAN_ANOMALY   = 310.3676

EPHEMERIS_TYPE = 0
CLASSIFICATION_TYPE = U
NORAD_CAT_ID   = 66670
ELEMENT_SET_NO = 999
REV_AT_EPOCH   = 376
BSTAR          = -.59587969E-2
MEAN_MOTION_DOT = -.108931E-2
MEAN_MOTION_DDOT = 0

CCSDS_OMM_VERS = 2.0
CREATION_DATE  = 
ORIGINATOR     = 

OBJECT_NAME    = TRANSPORTER-15F
OBJECT_ID      = 2025-276F
CENTER_NAME    = EARTH
REF_FRAME      = TEME
TIME_SYSTEM    = UTC
MEAN_ELEMENT_THEORY = SGP/SGP4

EPOCH          = 2025-12-24T05:17:39.362208
MEAN_MOTION    = 15.17145624
ECCENTRICITY   = .0005185
INCLINATION    = 97.4417
RA_OF_ASC_NODE = 69.7704
ARG_OF_PERICENTER = 246.4648
MEAN_ANOMALY   = 113.6041

EPHEMERIS_TYPE = 0
CLASSIFICATION_TYPE = U
NORAD_CAT_ID   = 66671
ELEMENT_SET_NO = 999
REV_AT_EPOCH   = 386
BSTAR          = .72887344E-3
MEAN_MOTION_DOT = .14417E-3
MEAN_MOTION_DDOT = 0

CCSDS_OMM_VERS = 2.0
CREATION_DATE  = 
ORIGINATOR     = 

OBJECT_NAME    = TRANSPORTER-15G
OBJECT_ID      = 2025-276G
CENTER_NAME    = EARTH
REF_FRAME      = TEME
TIME_SYSTEM    = UTC
MEAN_ELEMENT_THEORY = SGP/SGP4

EPOCH          = 2025-12-24T02:15:12.077856
MEAN_MOTION    = 15.16640453
ECCENTRICITY   = .00054885
INCLINATION    = 97.4390
RA_OF_ASC_NODE = 69.6259
ARG_OF_PERICENTER = 244.5350
MEAN_ANOMALY   = 115.5316

EPHEMERIS_TYPE = 0
CLASSIFICATION_TYPE = U
NORAD_CAT_ID   = 66672
ELEMENT_SET_NO = 999
REV_AT_EPOCH   = 384
BSTAR          = .49752614E-3
MEAN_MOTION_DOT = .9673E-4
MEAN_MOTION_DDOT = 0

CCSDS_OMM_VERS = 2.0
CREATION_DATE  = 
ORIGINATOR     = 

OBJECT_NAME    = TRANSPORTER-15H
OBJECT_ID      = 2025-276H
CENTER_NAME    = EARTH
REF_FRAME      = TEME
TIME_SYSTEM    = UTC
MEAN_ELEMENT_THEORY = SGP/SGP4

EPOCH          = 2025-12-24T05:19:01.435296
MEAN_MOTION    = 15.17192698
ECCENTRICITY   = .00058973
INCLINATION    = 97.4358
RA_OF_ASC_NODE = 69.7501
ARG_OF_PERICENTER = 263.3100
MEAN_ANOMALY   = 96.7462

EPHEMERIS_TYPE = 0
CLASSIFICATION_TYPE = U
NORAD_CAT_ID   = 66673
ELEMENT_SET_NO = 999
REV_AT_EPOCH   = 386
BSTAR          = .11480745E-2
MEAN_MOTION_DOT = .22806E-3
MEAN_MOTION_DDOT = 0

CCSDS_OMM_VERS = 2.0
CREATION_DATE  = 
ORIGINATOR     = 

OBJECT_NAME    = TRANSPORTER-15J
OBJECT_ID      = 2025-276J
CENTER_NAME    = EARTH
REF_FRAME      = TEME
TIME_SYSTEM    = UTC
MEAN_ELEMENT_THEORY = SGP/SGP4

EPOCH          = 2025-12-21T10:53:16.478880
MEAN_MOTION    = 15.15191397
ECCENTRICITY   = .00065005
INCLINATION    = 97.4372
RA_OF_ASC_NODE = 67.0325
ARG_OF_PERICENTER = 333.1103
MEAN_ANOMALY   = 26.9792

EPHEMERIS_TYPE = 0
CLASSIFICATION_TYPE = U
NORAD_CAT_ID   = 66674
ELEMENT_SET_NO = 999
REV_AT_EPOCH   = 344
BSTAR          = -.28180021E-1
MEAN_MOTION_DOT = -.494676E-2
MEAN_MOTION_DDOT = 0

CCSDS_OMM_VERS = 2.0
CREATION_DATE  = 
ORIGINATOR     = 

OBJECT_NAME    = TRANSPORTER-15K
OBJECT_ID      = 2025-276K
CENTER_NAME    = EARTH
REF_FRAME      = TEME
TIME_SYSTEM    = UTC
MEAN_ELEMENT_THEORY = SGP/SGP4

EPOCH          = 2025-12-24T03:44:14.687520
MEAN_MOTION    = 15.17037385
ECCENTRICITY   = .00051452
INCLINATION    = 97.4382
RA_OF_ASC_NODE = 69.6935
ARG_OF_PERICENTER = 253.7464
MEAN_ANOMALY   = 106.3204

EPHEMERIS_TYPE = 0
CLASSIFICATION_TYPE = U
NORAD_CAT_ID   = 66675
ELEMENT_SET_NO = 999
REV_AT_EPOCH   = 385
BSTAR          = .68788014E-3
MEAN_MOTION_DOT = .13559E-3
MEAN_MOTION_DDOT = 0

