KSLV-II R/B             
1 66663U 25274P   25357.24959984  .00013749  00000+0  11394-2 0  9992
2 66663  97.7435 284.4956 0060000 282.7951  76.6570 14.97536982  3987
SOYUZ-MS 28             
1 66664U 25275A   25358.21340367  .00012440  00000+0  22738-3 0  9993
2 66664  51.6319  85.6574 0003170 294.2840  65.7818 15.49773492  1287
FORMOSAT-8A             
1 66666U 25276A   25358.23308181  .00005148  00000+0  41471-3 0  9998
2 66666  97.6576  70.0060 0003968 188.8830 171.2324 15.00353618  3811
PELICAN-5               
1 66667U 25276B   25358.20895018  .00009589  00000+0  47986-3 0  9996
2 66667  97.4411  69.7851 0002215 208.2187 151.8927 15.17615125  3867
TRANSPORTER-15C         
1 66668U 25276C   25356.70551735  .02259996  00000+0  88401-1 0  9991
2 66668  97.4316  68.2383 0026797 290.2810  69.5546 15.21727190  3639
TRANSPORTER-15D         
1 66669U 25276D   25355.11062744  .00101698  00000+0  27830-2 0  9996
2 66669  97.4314  66.7079 0074819 232.3102 127.1341 15.34134881  3392
HUNITY                  
1 66670U 25276E   25357.56437036 -.00108931  00000+0 -59588-2 0  9993
2 66670  97.4308  69.0882 0004515  49.7951 310.3676 15.14778724  3769
TRANSPORTER-15F         
1 66671U 25276F   25358.22059447  .00014417  00000+0  72887-3 0  9995
2 66671  97.4417  69.7704 0005185 246.4648 113.6041 15.17145624  3865
TRANSPORTER-15G         
1 66672U 25276G   25358.09388979  .00009673  00000+0  49753-3 0  9990
2 66672  97.4390  69.6259 0005488 244.5350 115.5316 15.16640453  3848
TRANSPORTER-15H         
1 66673U 25276H   25358.22154439  .00022806  00000+0  11481-2 0  9997
2 66673  97.4358  69.7501 0005897 263.3100  96.7462 15.17192698  3868
TRANSPORTER-15J         
1 66674U 25276J   25355.45366295 -.00494676  00000+0 -28180-1 0  9998
2 66674  97.4372  67.0325 0006500 333.1103  26.9792 15.15191397  3449
TRANSPORTER-15K         
1 66675U 25276K   25358.15572555  .00013559  00000+0  68788-3 0  9992
2 66675  97.4382  69.6935 0005145 253.7464 106.3204 15.17037385  3851
